1 39150U 13018A   25334.97815447  .00000880  00000+0  13331-3 0  9992
2 39150  97.9340  45.8447 0017471 180.0897 180.0313 14.76499376678998
